H1 CPF 01  gfz 2022 10 14 12  7872 tandemx   
H2 1003001  6202 36605    2022 10 14 12 59 42 2022 10 19 00 00 42   120 1 1  0 0 0
H9
10 0 59870  65502.000000  0   -3320879.096   -637862.695   5990681.793
10 0 59870  65622.000000  0   -4093338.584   -504881.813   5506975.503
10 0 59870  65742.000000  0   -4791777.048   -350210.576   4926386.637
10 0 59870  65862.000000  0   -5403618.894   -177953.780   4259097.009
10 0 59870  65982.000000  0   -5917873.885      7267.954   3516824.891
10 0 59870  66102.000000  0   -6325343.477    200428.447   2712621.517
10 0 59870  66222.000000  0   -6618795.865    396217.784   1860641.769
10 0 59870  66342.000000  0   -6793103.757    589172.382    975891.259
10 0 59870  66462.000000  0   -6845341.019    773809.730     73955.294
10 0 59870  66582.000000  0   -6774834.771    944765.113   -829284.654
10 0 59870  66702.000000  0   -6583170.825   1096926.346  -1717939.846
10 0 59870  66822.000000  0   -6274154.466   1225562.698  -2576400.662
10 0 59870  66942.000000  0   -5853729.117   1326446.485  -3389618.072
10 0 59870  67062.000000  0   -5329849.558   1395962.114  -4143372.226
10 0 59870  67182.000000  0   -4712318.210   1431200.545  -4824519.873
10 0 59870  67302.000000  0   -4012589.237   1430037.651  -5421218.686
10 0 59870  67422.000000  0   -3243545.766   1391194.719  -5923124.309
10 0 59870  67542.000000  0   -2419256.011   1314279.745  -6321559.327
10 0 59870  67662.000000  0   -1554712.315   1199809.638  -6609652.202
10 0 59870  67782.000000  0    -665557.908   1049213.424  -6782443.797
10 0 59870  67902.000000  0     232191.584    864815.561  -6836962.365
10 0 59870  68022.000000  0    1122428.497    649801.079  -6772269.495
10 0 59870  68142.000000  0    1989235.952    408161.594  -6589476.860
10 0 59870  68262.000000  0    2817166.485    144623.277  -6291728.532
10 0 59870  68382.000000  0    3591512.812   -135441.576  -5884152.953
10 0 59870  68502.000000  0    4298566.347   -426119.494  -5373782.522
10 0 59870  68622.000000  0    4925860.432   -721074.611  -4769444.298
10 0 59870  68742.000000  0    5462396.569  -1013680.500  -4081619.182
10 0 59870  68862.000000  0    5898845.891  -1297162.022  -3322269.831
10 0 59870  68982.000000  0    6227722.333  -1564744.780  -2504640.285
10 0 59870  69102.000000  0    6443523.388  -1809809.055  -1643029.362
10 0 59870  69222.000000  0    6542833.893  -2026044.307   -752540.932
10 0 59870  69342.000000  0    6524389.751  -2207600.072    151183.712
10 0 59870  69462.000000  0    6389099.565  -2349230.138   1052246.809
10 0 59870  69582.000000  0    6140022.222  -2446425.091   1934782.452
10 0 59870  69702.000000  0    5782300.432  -2495530.754   2783245.207
10 0 59870  69822.000000  0    5323052.596  -2493848.579   3582692.622
10 0 59870  69942.000000  0    4771224.280  -2439715.250   4319054.554
10 0 59870  70062.000000  0    4137406.880  -2332559.980   4979382.972
10 0 59870  70182.000000  0    3433627.144  -2172939.424   5552081.619
10 0 59870  70302.000000  0    2673109.123  -1962548.136   6027107.946
10 0 59870  70422.000000  0    1870018.734  -1704204.455   6396143.882
10 0 59870  70542.000000  0    1039195.046  -1401813.667   6652735.744
10 0 59870  70662.000000  0     195872.831  -1060308.310   6792401.329
10 0 59870  70782.000000  0    -644597.774   -685566.471   6812702.670
10 0 59870  70902.000000  0   -1467029.619   -284310.341   6713285.099
10 0 59870  71022.000000  0   -2256671.689    136014.071   6495883.030
10 0 59870  71142.000000  0   -2999472.777    567374.462   6164292.041
10 0 59870  71262.000000  0   -3682332.394   1001304.553   5724307.417
10 0 59870  71382.000000  0   -4293335.508   1429068.744   5183629.304
10 0 59870  71502.000000  0   -4821966.564   1841836.734   4551733.910
10 0 59870  71622.000000  0   -5259297.953   2230865.350   3839712.054
10 0 59870  71742.000000  0   -5598148.558   2587682.897   3060077.171
10 0 59870  71862.000000  0   -5833209.191   2904272.236   2226546.465
10 0 59870  71982.000000  0   -5961132.950   3173248.674   1353797.945
10 0 59870  72102.000000  0   -5980586.969   3388028.523    457205.995
10 0 59870  72222.000000  0   -5892261.839   3542982.447   -447437.501
10 0 59870  72342.000000  0   -5698840.761   3633570.208  -1344209.742
10 0 59870  72462.000000  0   -5404929.408   3656454.295  -2217346.535
10 0 59870  72582.000000  0   -5016945.128   3609587.905  -3051528.171
10 0 59870  72702.000000  0   -4542971.349   3492275.955  -3832153.043
10 0 59870  72822.000000  0   -3992580.763   3305207.730  -4545593.933
10 0 59870  72942.000000  0   -3376634.004   3050461.607  -5179432.406
10 0 59870  73062.000000  0   -2707058.336   2731482.008  -5722667.044
10 0 59870  73182.000000  0   -1996613.156   2353030.749  -6165895.150
10 0 59870  73302.000000  0   -1258643.655   1921112.370  -6501465.021
10 0 59870  73422.000000  0    -506830.894   1442876.190  -6723595.473
10 0 59870  73542.000000  0     245057.942    926497.431  -6828465.201
10 0 59870  73662.000000  0     983414.991    381039.440  -6814271.388
10 0 59870  73782.000000  0    1695033.015   -183702.129  -6681258.912
10 0 59870  73902.000000  0    2367336.266   -757371.292  -6431715.156
10 0 59870  74022.000000  0    2988597.966  -1329236.468  -6069935.423
10 0 59870  74142.000000  0    3548142.674  -1888385.935  -5602156.412
10 0 59870  74262.000000  0    4036530.702  -2423931.811  -5036460.559
10 0 59870  74382.000000  0    4445722.012  -2925221.145  -4382647.277
10 0 59870  74502.000000  0    4769213.707  -3382047.698  -3652073.314
10 0 59870  74622.000000  0    5002150.773  -3784860.386  -2857465.023
10 0 59870  74742.000000  0    5141407.458  -4124965.190  -2012702.757
10 0 59870  74862.000000  0    5185635.111  -4394714.447  -1132580.418
10 0 59870  74982.000000  0    5135275.577  -4587679.667   -232544.820
10 0 59870  75102.000000  0    4992537.951  -4698803.073    671580.679
10 0 59870  75222.000000  0    4761339.147  -4724522.337   1563882.556
10 0 59870  75342.000000  0    4447209.310  -4662865.020   2428646.355
10 0 59870  75462.000000  0    4057165.292  -4513510.926   3250641.598
10 0 59870  75582.000000  0    3599555.371  -4277821.049   4015397.208
10 0 59870  75702.000000  0    3083878.110  -3958832.120   4709461.381
10 0 59870  75822.000000  0    2520581.357  -3561216.299   5320639.934
10 0 59870  75942.000000  0    1920846.848  -3091209.146   5838209.527
10 0 59870  76062.000000  0    1296363.938  -2556506.081   6253102.637
10 0 59870  76182.000000  0     659098.922  -1966131.288   6558060.183
10 0 59870  76302.000000  0      21064.092  -1330281.944   6747752.277
10 0 59870  76422.000000  0    -605908.432   -660149.839   6818865.984
10 0 59870  76542.000000  0   -1210385.068     32276.924   6770159.310
10 0 59870  76662.000000  0   -1781538.529    734428.070   6602481.465
10 0 59870  76782.000000  0   -2309341.237   1433378.691   6318758.934
10 0 59870  76902.000000  0   -2784741.886   2116086.234   5923947.603
10 0 59870  77022.000000  0   -3199822.163   2769633.833   5424951.930
10 0 59870  77142.000000  0   -3547932.073   3381476.539   4830510.666
10 0 59870  77262.000000  0   -3823800.870   3939685.063   4151049.507
10 0 59870  77382.000000  0   -4023620.835   4433183.344   3398502.749
10 0 59870  77502.000000  0   -4145102.013   4851974.476   2586105.466
10 0 59870  77622.000000  0   -4187495.857   5187348.590   1728158.665
10 0 59870  77742.000000  0   -4151587.180   5432067.597    839773.666
10 0 59870  77862.000000  0   -4039655.790   5580522.933    -63399.768
10 0 59870  77982.000000  0   -3855407.508   5628862.710   -965458.017
10 0 59870  78102.000000  0   -3603874.661   5575082.358  -1850534.419
10 0 59870  78222.000000  0   -3291289.606   5419076.373  -2703087.245
10 0 59870  78342.000000  0   -2924934.798   5162652.649  -3508178.208
10 0 59870  78462.000000  0   -2512975.356   4809507.019  -4251736.749
10 0 59870  78582.000000  0   -2064277.383   4365161.078  -4920803.961
10 0 59870  78702.000000  0   -1588217.415   3836866.521  -5503751.484
10 0 59870  78822.000000  0   -1094487.809   3233479.137  -5990475.666
10 0 59870  78942.000000  0    -592900.743   2565302.722  -6372563.372
10 0 59870  79062.000000  0     -93195.441   1843907.863  -6643425.450
10 0 59870  79182.000000  0     395146.518   1081930.648  -6798399.235
10 0 59870  79302.000000  0     863076.376    292853.487  -6834820.902
10 0 59870  79422.000000  0    1302142.222   -509229.233  -6752066.408
10 0 59870  79542.000000  0    1704637.520  -1309857.598  -6551559.506
10 0 59870  79662.000000  0    2063732.931  -2094459.577  -6236749.599
10 0 59870  79782.000000  0    2373591.024  -2848609.548  -5813059.423
10 0 59870  79902.000000  0    2629461.556  -3558290.231  -5287803.144
10 0 59870  80022.000000  0    2827756.507  -4210154.646  -4670070.492
10 0 59870  80142.000000  0    2966101.141  -4791778.294  -3970578.627
10 0 59870  80262.000000  0    3043361.692  -5291900.045  -3201497.455
10 0 59870  80382.000000  0    3059648.996  -5700649.276  -2376246.269
10 0 59870  80502.000000  0    3016296.895  -6009749.918  -1509263.122
10 0 59870  80622.000000  0    2915815.857  -6212697.408   -615752.251
10 0 59870  80742.000000  0    2761820.978  -6304903.287    288587.426
10 0 59870  80862.000000  0    2558936.470  -6283801.205   1187844.786
10 0 59870  80982.000000  0    2312679.840  -6148914.796   2066184.835
10 0 59870  81102.000000  0    2029327.165  -5901881.585   2908138.020
10 0 59870  81222.000000  0    1715763.807  -5546433.113   3698880.009
10 0 59870  81342.000000  0    1379324.315  -5088334.388   4424497.680
10 0 59870  81462.000000  0    1027626.402  -4535283.554   5072236.470
10 0 59870  81582.000000  0     668402.428  -3896774.875   5630725.940
10 0 59870  81702.000000  0     309331.547  -3183925.246   6090177.395
10 0 59870  81822.000000  0     -42121.896  -2409271.636   6442549.041
10 0 59870  81942.000000  0    -378861.023  -1586545.513   6681679.720
99
